{"type": "FeatureCollection", "features": [ {"type": "Feature", "properties": {"norad_id": 37996, "name": "COSMOS 2251 DEB", "group": "cosmos-2251-debris", "lat": 45.26851679738568, "lon": -136.31420152856623, "alt_km": 849.0679614431019, "timestamp": "2025-12-10T14:53:37.485520+00:00", "meta": {"OBJECT_NAME": "COSMOS 2251 DEB", "OBJECT_ID": "1993-036BQX", "EPOCH": "2025-11-16T18:35:00.708864", "MEAN_MOTION": 14.09591608, "ECCENTRICITY": 0.02219827, "INCLINATION": 74.0658, "RA_OF_ASC_NODE": 248.8308, "ARG_OF_PERICENTER": 5.4709, "MEAN_ANOMALY": 354.8776, "EPHEMERIS_TYPE": 0, "CLASSIFICATION_TYPE": "U", "NORAD_CAT_ID": 37996, "ELEMENT_SET_NO": 999, "REV_AT_EPOCH": 55769, "BSTAR": 0.0096790999, "MEAN_MOTION_DOT": 0.00021331, "MEAN_MOTION_DDOT": 0}, "tle": {"line1": "1 37996U 93036BQX 25320.77431376  .00021331  00000+0  96791-2 0  9998", "line2": "2 37996  74.0658 248.8308 0221982   5.4709 354.8776 14.09591608557693"}}, "geometry": {"type": "Point", "coordinates": [-136.31420152856623, 45.26851679738568]}}, {"type": "Feature", "properties": {"norad_id": 37998, "name": "COSMOS 2251 DEB", "group": "cosmos-2251-debris", "lat": 46.49724842161742, "lon": 41.50507033931024, "alt_km": 750.2446730635966, "timestamp": "2025-12-10T14:53:37.485528+00:00", "meta": {"OBJECT_NAME": "COSMOS 2251 DEB", "OBJECT_ID": "1993-036BQZ", "EPOCH": "2025-12-07T01:34:33.386016", "MEAN_MOTION": 14.45444842, "ECCENTRICITY": 0.00199405, "INCLINATION": 74.0387, "RA_OF_ASC_NODE": 245.6796, "ARG_OF_PERICENTER": 320.6712, "MEAN_ANOMALY": 39.2997, "EPHEMERIS_TYPE": 0, "CLASSIFICATION_TYPE": "U", "NORAD_CAT_ID": 37998, "ELEMENT_SET_NO": 999, "REV_AT_EPOCH": 64205, "BSTAR": 0.00093558552, "MEAN_MOTION_DOT": 3.277e-05, "MEAN_MOTION_DDOT": 0}, "tle": {"line1": "1 37998U 93036BQZ 25341.06566419  .00003277  00000+0  93559-3 0  9991", "line2": "2 37998  74.0387 245.6796 0019940 320.6712  39.2997 14.45444842642056"}}, "geometry": {"type": "Point", "coordinates": [41.50507033931024, 46.49724842161742]}}, {"type": "Feature", "properties": {"norad_id": 38001, "name": "COSMOS 2251 DEB", "group": "cosmos-2251-debris", "lat": -11.389705945695425, "lon": -40.18135573291043, "alt_km": 639.74924571271, "timestamp": "2025-12-10T14:53:37.485537+00:00", "meta": {"OBJECT_NAME": "COSMOS 2251 DEB", "OBJECT_ID": "1993-036BRC", "EPOCH": "2025-12-09T17:00:16.350912", "MEAN_MOTION": 14.79018783, "ECCENTRICITY": 0.00654872, "INCLINATION": 74.0007, "RA_OF_ASC_NODE": 138.302, "ARG_OF_PERICENTER": 288.3389, "MEAN_ANOMALY": 89.9647, "EPHEMERIS_TYPE": 0, "CLASSIFICATION_TYPE": "U", "NORAD_CAT_ID": 38001, "ELEMENT_SET_NO": 999, "REV_AT_EPOCH": 74663, "BSTAR": 0.001203292, "MEAN_MOTION_DOT": 9.198e-05, "MEAN_MOTION_DDOT": 0}, "tle": {"line1": "1 38001U 93036BRC 25343.70852258  .00009198  00000+0  12033-2 0  9994", "line2": "2 38001  74.0007 138.3020 0065487 288.3389  89.9647 14.79018783746637"}}, "geometry": {"type": "Point", "coordinates": [-40.18135573291043, -11.389705945695425]}}, {"type": "Feature", "properties": {"norad_id": 38006, "name": "COSMOS 2251 DEB", "group": "cosmos-2251-debris", "lat": -67.920702624654, "lon": -3.4497656497675084, "alt_km": 720.4317006810052, "timestamp": "2025-12-10T14:53:37.485546+00:00", "meta": {"OBJECT_NAME": "COSMOS 2251 DEB", "OBJECT_ID": "1993-036BRH", "EPOCH": "2025-12-10T03:36:37.956384", "MEAN_MOTION": 14.45867865, "ECCENTRICITY": 0.00758537, "INCLINATION": 73.8744, "RA_OF_ASC_NODE": 42.933, "ARG_OF_PERICENTER": 348.3853, "MEAN_ANOMALY": 11.555, "EPHEMERIS_TYPE": 0, "CLASSIFICATION_TYPE": "U", "NORAD_CAT_ID": 38006, "ELEMENT_SET_NO": 999, "REV_AT_EPOCH": 62922, "BSTAR": 0.0047338847, "MEAN_MOTION_DOT": 0.00017443, "MEAN_MOTION_DDOT": 0}, "tle": {"line1": "1 38006U 93036BRH 25344.15043931  .00017443  00000+0  47339-2 0  9998", "line2": "2 38006  73.8744  42.9330 0075853 348.3853  11.5550 14.45867865629227"}}, "geometry": {"type": "Point", "coordinates": [-3.4497656497675084, -67.920702624654]}}, {"type": "Feature", "properties": {"norad_id": 38054, "name": "COSMOS 2251 DEB", "group": "cosmos-2251-debris", "lat": -34.13074876150949, "lon": -101.98085345843356, "alt_km": 962.1271668830987, "timestamp": "2025-12-10T14:53:37.485555+00:00", "meta": {"OBJECT_NAME": "COSMOS 2251 DEB", "OBJECT_ID": "1993-036BRL", "EPOCH": "2025-12-06T19:35:06.065952", "MEAN_MOTION": 13.62293123, "ECCENTRICITY": 0.0360398, "INCLINATION": 73.9587, "RA_OF_ASC_NODE": 275.4844, "ARG_OF_PERICENTER": 254.7432, "MEAN_ANOMALY": 133.9151, "EPHEMERIS_TYPE": 0, "CLASSIFICATION_TYPE": "U", "NORAD_CAT_ID": 38054, "ELEMENT_SET_NO": 999, "REV_AT_EPOCH": 67099, "BSTAR": 0.0049752628, "MEAN_MOTION_DOT": 5.934e-05, "MEAN_MOTION_DDOT": 0}, "tle": {"line1": "1 38054U 93036BRL 25340.81604243  .00005934  00000+0  49753-2 0  9993", "line2": "2 38054  73.9587 275.4844 0360398 254.7432 133.9151 13.62293123670997"}}, "geometry": {"type": "Point", "coordinates": [-101.98085345843356, -34.13074876150949]}}, {"type": "Feature", "properties": {"norad_id": 38055, "name": "COSMOS 2251 DEB", "group": "cosmos-2251-debris", "lat": 71.50845966446695, "lon": -28.117400644612793, "alt_km": 654.9560298764363, "timestamp": "2025-12-10T14:53:37.485564+00:00", "meta": {"OBJECT_NAME": "COSMOS 2251 DEB", "OBJECT_ID": "1993-036BRM", "EPOCH": "2025-12-08T09:35:56.658912", "MEAN_MOTION": 14.76901883, "ECCENTRICITY": 0.00657195, "INCLINATION": 74.0086, "RA_OF_ASC_NODE": 215.2783, "ARG_OF_PERICENTER": 343.7571, "MEAN_ANOMALY": 193.0951, "EPHEMERIS_TYPE": 0, "CLASSIFICATION_TYPE": "U", "NORAD_CAT_ID": 38055, "ELEMENT_SET_NO": 999, "REV_AT_EPOCH": 60618, "BSTAR": 0.0010877136, "MEAN_MOTION_DOT": 7.901e-05, "MEAN_MOTION_DDOT": 0}, "tle": {"line1": "1 38055U 93036BRM 25342.39996133  .00007901  00000+0  10877-2 0  9992", "line2": "2 38055  74.0086 215.2783 0065719 343.7571 193.0951 14.76901883606180"}}, "geometry": {"type": "Point", "coordinates": [-28.117400644612793, 71.50845966446695]}}, {"type": "Feature", "properties": {"norad_id": 38060, "name": "COSMOS 2251 DEB", "group": "cosmos-2251-debris", "lat": 59.5856586048294, "lon": -31.45428258700217, "alt_km": 635.727241698507, "timestamp": "2025-12-10T14:53:37.485573+00:00", "meta": {"OBJECT_NAME": "COSMOS 2251 DEB", "OBJECT_ID": "1993-036BRS", "EPOCH": "2025-12-08T15:02:26.401344", "MEAN_MOTION": 14.63819883, "ECCENTRICITY": 0.0057903, "INCLINATION": 74.0428, "RA_OF_ASC_NODE": 303.2001, "ARG_OF_PERICENTER": 50.388, "MEAN_ANOMALY": 310.2378, "EPHEMERIS_TYPE": 0, "CLASSIFICATION_TYPE": "U", "NORAD_CAT_ID": 38060, "ELEMENT_SET_NO": 999, "REV_AT_EPOCH": 71904, "BSTAR": 0.0010404, "MEAN_MOTION_DOT": 5.538e-05, "MEAN_MOTION_DDOT": 0}, "tle": {"line1": "1 38060U 93036BRS 25342.62669446  .00005538  00000+0  10404-2 0  9998", "line2": "2 38060  74.0428 303.2001 0057903  50.3880 310.2378 14.63819883719047"}}, "geometry": {"type": "Point", "coordinates": [-31.45428258700217, 59.5856586048294]}}, {"type": "Feature", "properties": {"norad_id": 38062, "name": "COSMOS 2251 DEB", "group": "cosmos-2251-debris", "lat": 22.96770213820876, "lon": 107.77275115291442, "alt_km": 583.3895691618718, "timestamp": "2025-12-10T14:53:37.485582+00:00", "meta": {"OBJECT_NAME": "COSMOS 2251 DEB", "OBJECT_ID": "1993-036BRU", "EPOCH": "2025-12-06T04:12:38.753856", "MEAN_MOTION": 14.94290132, "ECCENTRICITY": 0.00122346, "INCLINATION": 74.0094, "RA_OF_ASC_NODE": 303.7202, "ARG_OF_PERICENTER": 72.1633, "MEAN_ANOMALY": 298.7726, "EPHEMERIS_TYPE": 0, "CLASSIFICATION_TYPE": "U", "NORAD_CAT_ID": 38062, "ELEMENT_SET_NO": 999, "REV_AT_EPOCH": 62932, "BSTAR": 0.0035053507, "MEAN_MOTION_DOT": 0.00037877, "MEAN_MOTION_DDOT": 0}, "tle": {"line1": "1 38062U 93036BRU 25340.17544854  .00037877  00000+0  35054-2 0  9992", "line2": "2 38062  74.0094 303.7202 0012234  72.1633 298.7726 14.94290132629324"}}, "geometry": {"type": "Point", "coordinates": [107.77275115291442, 22.96770213820876]}}, {"type": "Feature", "properties": {"norad_id": 38064, "name": "COSMOS 2251 DEB", "group": "cosmos-2251-debris", "lat": 8.034237452467734, "lon": 130.4791705206927, "alt_km": 723.7353521930127, "timestamp": "2025-12-10T14:53:37.485590+00:00", "meta": {"OBJECT_NAME": "COSMOS 2251 DEB", "OBJECT_ID": "1993-036BRW", "EPOCH": "2025-12-08T19:59:17.678400", "MEAN_MOTION": 14.56247306, "ECCENTRICITY": 0.00475278, "INCLINATION": 74.0223, "RA_OF_ASC_NODE": 131.5539, "ARG_OF_PERICENTER": 251.7836, "MEAN_ANOMALY": 107.8151, "EPHEMERIS_TYPE": 0, "CLASSIFICATION_TYPE": "U", "NORAD_CAT_ID": 38064, "ELEMENT_SET_NO": 999, "REV_AT_EPOCH": 71808, "BSTAR": 0.0016943453, "MEAN_MOTION_DOT": 7.589e-05, "MEAN_MOTION_DDOT": 0}, "tle": {"line1": "1 38064U 93036BRW 25342.83284350  .00007589  00000+0  16943-2 0  9994", "line2": "2 38064  74.0223 131.5539 0047527 251.7836 107.8151 14.56247306718080"}}, "geometry": {"type": "Point", "coordinates": [130.4791705206927, 8.034237452467734]}}, {"type": "Feature", "properties": {"norad_id": 38067, "name": "COSMOS 2251 DEB", "group": "cosmos-2251-debris", "lat": -47.28661453914181, "lon": -99.51789437903861, "alt_km": 718.052569638834, "timestamp": "2025-12-10T14:53:37.485599+00:00", "meta": {"OBJECT_NAME": "COSMOS 2251 DEB", "OBJECT_ID": "1993-036BRZ", "EPOCH": "2025-11-29T04:46:36.876288", "MEAN_MOTION": 14.61044936, "ECCENTRICITY": 0.00691529, "INCLINATION": 74.017, "RA_OF_ASC_NODE": 300.4181, "ARG_OF_PERICENTER": 91.9303, "MEAN_ANOMALY": 288.2542, "EPHEMERIS_TYPE": 0, "CLASSIFICATION_TYPE": "U", "NORAD_CAT_ID": 38067, "ELEMENT_SET_NO": 999, "REV_AT_EPOCH": 62358, "BSTAR": 0.00037425936, "MEAN_MOTION_DOT": 1.87e-05, "MEAN_MOTION_DDOT": 0}, "tle": {"line1": "1 38067U 93036BRZ 25333.19903792  .00001870  00000+0  37426-3 0  9991", "line2": "2 38067  74.0170 300.4181 0069152  91.9303 288.2542 14.61044936623583"}}, "geometry": {"type": "Point", "coordinates": [-99.51789437903861, -47.28661453914181]}}]}